<!DOCTYPE html PUBLIC "-//W3C//DTD XHTML 1.0 Strict//EN" "http://www.w3.org/TR/xhtml1/DTD/xhtml1-strict.dtd">
<html xmlns="http://www.w3.org/1999/xhtml">
<head>
<meta http-equiv="Content-Type" content="text/html; charset=iso-8859-1"/>
<title>404 - File Not Found.</title>
<style type="text/css">
<!--
body{margin:0;font-size:.7em;font-family:Verdana, Arial, Helvetica, sans-serif;background:#EEEEEE;}
fieldset{padding:0 15px 10px 15px;}
h1{font-size:2.4em;margin:0;color:#FFF;}
h2{font-size:1.7em;margin:0;color:#CC0000;}
h3{font-size:1.2em;margin:10px 0 0 0;color:#000000;}
#header{width:96%;margin:0 0 0 0;padding:6px 2% 6px 2%;font-family:"trebuchet MS", Verdana, sans-serif;color:#FFF;
background-color:#555555;}
#content{margin:0 0 0 2%;position:relative;}
.content-container{background:#FFF;width:96%;margin-top:8px;padding:10px;position:relative;}
-->
</style>
</head>
<body>
<div id="header"><h1>Server Error</h1></div>
<div id="content">
 <div class="content-container"><fieldset>
  <h2>404 - File Not Found.</h2>
  <h3>File not found for celestrak.org/NORAD/elements/active.txt.</h3>
  <h3>Please contact <a href="mailto:ts.kelso@celestrak.org">ts.kelso@celestrak.org</a> if you have other questions.</h3>
 </fieldset></div>
</div>
</body>
</html>
LANDSAT 9               
1 49260U 21088A   24016.17570063  .00000853  00000+0  19935-3 0  9997
2 49260  98.2071  88.2563 0001094  89.2663 270.8661 14.57114720122401
CSG-2                   
1 51444U 22008A   24016.11496713  .00000929  00000+0  12324-3 0  9999
2 51444  97.8857 201.5168 0001369  83.6837 276.4532 14.82170082105784
INS-2TD                 
1 51658U 22013C   24015.98510404  .00034844  00000+0  11248-2 0  9996
2 51658  97.5362  35.3653 0007143 355.4268   4.6907 15.32024034106458
GAOFEN-12 03            
1 52912U 22069A   24016.13215726  .00003364  00000+0  43941-3 0  9997
2 52912  97.9286 269.0191 0001398  71.1248 289.0116 14.81146176 83966
SWOT                    
1 54754U 22173A   24016.09966384  .00000176  00000+0  12126-3 0  9996
2 54754  77.6105 147.3879 0000289 304.1301  55.9823 14.00167417 55567
GAOFEN-12 04            
1 57654U 23123A   24016.17106141  .00003075  00000+0  40293-3 0  9997
2 57654  97.9116 295.6336 0002402  43.3459 316.7942 14.81071572 21979
SARSAT 7 (NOAA 15)      
1 25338U 98030A   24016.12107672  .00000304  00000+0  14402-3 0  9990
2 25338  98.5860  46.3259 0011168  55.7238 304.4998 14.26472769335618
GPS BIIR-08             
1 27663U 03005A   24015.63584653  .00000031  00000+0  00000+0 0  9996
2 27663  55.1753 250.1068 0137568  46.1630 323.9261  2.00558321153588
GPS BIIR-11             
1 28190U 04009A   24015.64847964 -.00000062  00000+0  00000+0 0  9990
2 28190  55.5832 311.1647 0092568 142.6054  33.9876  2.00563016145251
GPS BIIR-13             
1 28474U 04045A   24015.59600521 -.00000076  00000+0  00000+0 0  9990
2 28474  55.4432   0.3564 0164932 287.3653 259.4379  2.00537703140705
SARSAT 10 (NOAA 18)     
1 28654U 05018A   24016.13263095  .00000370  00000+0  22164-3 0  9998
2 28654  98.8903  94.3000 0015028 135.0900 225.1491 14.13100856961643
GPS BIIR-14M            
1 28874U 05038A   24015.54629431 -.00000058  00000+0  00000+0 0  9993
2 28874  55.6320 308.6247 0139179 282.5575 204.5138  2.00566126134117
METEOSAT-9 (MSG-2)      
1 28912U 05049B   24015.71577001  .00000127  00000+0  00000+0 0  9998
2 28912   7.3338  62.1394 0000440 210.3575 145.4952  1.00271331 66183
GOES 13                 
1 29155U 06018A   24015.91160536 -.00000290  00000+0  00000+0 0  9990
2 29155   2.2255  87.1246 0087836 248.4165 245.7006  0.99157221 34513
GPS BIIR-16M            
1 29601U 06052A   24015.93609033  .00000032  00000+0  00000+0 0  9999
2 29601  55.2004 249.0629 0086945  80.2886 280.7636  2.00557351125730
GPS BIIR-17M            
1 32260U 07047A   24014.74720027  .00000011  00000+0  00000+0 0  9991
2 32260  53.5275 116.6515 0152271  73.4709 288.2034  2.00572274119079
GPS BIIR-18M            
1 32384U 07062A   24015.29783750 -.00000057  00000+0  00000+0 0  9999
2 32384  55.7677 309.4754 0024069 149.2814  16.8001  2.00565375117784
SARSAT 12 (NOAA 19)     
1 33591U 09005A   24016.13376329  .00000307  00000+0  18955-3 0  9992
2 33591  99.0716  70.1639 0013859   7.6182 352.5197 14.12906708770016
GOES 14                 
1 35491U 09033A   24015.61679726 -.00000062  00000+0  00000+0 0  9990
2 35491   0.0809 232.5233 0000326  99.9137 255.5922  1.00271677 53256
GOES 15                 
1 36411U 10008A   24015.88952215  .00000039  00000+0  00000+0 0  9996
2 36411   0.0852 262.0482 0005777   4.2865 230.2821  1.00276196 50787
GPS BIIF-2              
1 37753U 11036A   24015.86628709 -.00000073  00000+0  00000+0 0  9993
2 37753  56.7601   6.2899 0129250  56.5292 304.5431  2.00523354 91558
GSAT0101 (GALILEO-PFM)  
1 37846U 11060A   24014.86481021 -.00000073  00000+0  00000+0 0  9996
2 37846  57.1238   5.7079 0003190 331.4278  28.5589  1.70475680 76047
GSAT0102 (GALILEO-FM2)  
1 37847U 11060B   24014.49603796 -.00000072  00000+0  00000+0 0  9990
2 37847  57.1243   5.7180 0004971 316.2252 223.4305  1.70475103 76040
LUCH 5A                 
1 37951U 11074B   24015.91046966 -.00000048  00000+0  00000+0 0  9992
2 37951   6.4889  87.4777 0002999 197.6154 324.3608  1.00271884 44335
METEOSAT-10 (MSG-3)     
1 38552U 12035B   24015.87725194 -.00000004  00000+0  00000+0 0  9992
2 38552   2.6255  59.5254 0000973 231.4471 139.6726  1.00273147 42001
SARSAT 13 (METOP-B)     
1 38771U 12049A   24016.14956637  .00000259  00000+0  13829-3 0  9997
2 38771  98.6515  76.6472 0001695 103.0779 257.0588 14.21454245587807
GPS BIIF-3              
1 38833U 12053A   24015.83279043  .00000082  00000+0  00000+0 0  9992
2 38833  53.5148 179.7348 0148787  54.6705 306.6873  2.00556022 82616
GSAT0103 (GALILEO-FM3)  
1 38857U 12055A   24013.73080097  .00000009  00000+0  00000+0 0  9995
2 38857  55.3390 125.8802 0003328 247.2367 112.7096  1.70473404 69912
GSAT0104 (GALILEO-FM4)  
1 38858U 12055B   24014.87326367  .00000009  00000+0  00000+0 0  9995
2 38858  55.3393 125.8502 0001499 202.3303 157.6504  1.70473605 69939
GPS BIIF-4              
1 39166U 13023A   24015.20021500 -.00000052  00000+0  00000+0 0  9992
2 39166  55.2455 304.7817 0120441  42.1681 318.7812  2.00563340 78151
INSAT-3D                
1 39216U 13038B   24015.92758000 -.00000152  00000+0  00000+0 0  9996
2 39216   0.0530 249.4790 0003047  32.9164 248.4537  1.00271499 38226
GPS BIIF-5              
1 39533U 14008A   24015.20311090  .00000081  00000+0  00000+0 0  9991
2 39533  53.5993 185.3370 0068303 215.6867 143.8385  2.00559153 71955
LUCH 5V                 
1 39727U 14023A   24015.86021451 -.00000265  00000+0  00000+0 0  9999
2 39727   2.9148  76.8520 0003930 226.1266 216.1538  1.00267292 35500
GPS BIIF-6              
1 39741U 14026A   24015.48503390 -.00000072  00000+0  00000+0 0  9999
2 39741  56.7099   5.8248 0032825 310.8904  48.8346  2.00579006 70801
GPS BIIF-7              
1 40105U 14045A   24015.07178368  .00000021  00000+0  00000+0 0  9997
2 40105  54.8654 123.7680 0026678 117.3063 242.9646  2.00555332 68340
GSAT0201 (GALILEO 5)    
1 40128U 14050A   24012.77952185 -.00000060  00000+0  00000+0 0  9993
2 40128  49.8129 309.3451 1605661 145.2651 226.3850  1.85519378 61879
GSAT0202 (GALILEO 6)    
1 40129U 14050B   24015.19438120 -.00000075  00000+0  00000+0 0  9997
2 40129  49.8284 308.3224 1603933 146.1614 225.2208  1.85520040 64087
GPS BIIF-8              
1 40294U 14068A   24015.43680739 -.00000042  00000+0  00000+0 0  9995
2 40294  56.2895  65.2457 0048301  60.4133 300.1343  2.00549586 67486
GLONASS-K 2             
1 40315U 14075A   24015.21625367  .00000081  00000+0  00000+0 0  9991
2 40315  63.6289 221.0319 0018010 203.5524 156.4144  2.13101260 71018
GPS BIIF-9              
1 40534U 15013A   24015.58208283  .00000043  00000+0  00000+0 0  9999
2 40534  53.4031 240.7661 0086375  28.3692 332.1658  2.00574995 64109
GSAT0203 (GALILEO 7)    
1 40544U 15017A   24015.23060015 -.00000074  00000+0  00000+0 0  9990
2 40544  56.9191   5.6529 0005422 273.3317  86.6101  1.70475649 54134
GSAT0204 (GALILEO 8)    
1 40545U 15017B   24013.13825559 -.00000067  00000+0  00000+0 0  9992
2 40545  56.9250   5.7246 0004996 262.1704  97.7806  1.70475359 17142
GPS BIIF-10             
1 40730U 15033A   24015.24476117 -.00000051  00000+0  00000+0 0  9995
2 40730  54.7314 303.3295 0091275  15.8651 344.4510  2.00575075 62263
METEOSAT-11 (MSG-4)     
1 40732U 15034A   24015.87916646  .00000065  00000+0  00000+0 0  9997
2 40732   1.0234  63.5688 0002626 199.8793 177.2429  1.00265896 31166
GSAT0205 (GALILEO 9)    
1 40889U 15045A   24015.25324765  .00000048  00000+0  00000+0 0  9990
2 40889  55.2915 246.0244 0006120  33.4886 326.6295  1.70473178 51941
GSAT0206 (GALILEO 10)   
1 40890U 15045B   24014.88731754  .00000050  00000+0  00000+0 0  9993
2 40890  55.2909 246.0300 0004159  32.5649 327.5428  1.70472949 51961
GPS BIIF-11             
1 41019U 15062A   24015.29611753 -.00000041  00000+0  00000+0 0  9999
2 41019  56.2717  65.1033 0094349 223.9461 135.3649  2.00562175 60105
ELEKTRO-L 2             
1 41105U 15074A   24016.01759462 -.00000115  00000+0  00000+0 0  9991
2 41105   4.4506  81.3210 0003428 194.0939 191.4054  1.00270807 29661
GSAT0209 (GALILEO 12)   
1 41174U 15079A   24015.64424845  .00000007  00000+0  00000+0 0  9993
2 41174  55.3578 125.5355 0002529 309.0171  50.9506  1.70474603 50290
GSAT0208 (GALILEO 11)   
1 41175U 15079B   24015.27734579  .00000008  00000+0  00000+0 0  9992
2 41175  55.3560 125.5435 0003582 293.2763  66.6752  1.70474174 50124
GPS BIIF-12             
1 41328U 16007A   24014.88174928  .00000022  00000+0  00000+0 0  9992
2 41328  55.0657 124.5836 0075895 235.1056 124.1774  2.00569184 58108
